STARLINK-36479          
1 67352U 26003U   26030.25002315 -.02050125  00000+0 -28020-1 0  9992
2 67352  43.0003  86.3692 0000904 273.2683 300.2289 15.60185796  4492
STARLINK-36474          
1 67353U 26003V   26030.25002315 -.02092729  00000+0 -28067-1 0  9990
2 67353  43.0003  86.3645 0000901 270.4034 305.0178 15.60183383  4497
STARLINK-36448          
1 67354U 26003W   26030.25002315 -.02093124  00000+0 -28068-1 0  9992
2 67354  43.0001  86.3498 0000971 267.7116 313.4554 15.60187007  4497
STARLINK-36477          
1 67355U 26003X   26030.25002315 -.02050004  00000+0 -28020-1 0  9991
2 67355  43.0001  86.3600 0000976 272.2126 305.1225 15.60183261  4480
STARLINK-36429          
1 67356U 26003Y   26030.25002315 -.02049015  00000+0 -28004-1 0  9994
2 67356  43.0001  86.3548 0001021 268.2289 311.0210 15.60183060  4486
STARLINK-36456          
1 67357U 26003Z   26030.25002315 -.02050350  00000+0 -28025-1 0  9992
2 67357  43.0000  86.3445 0000940 271.4323 311.6534 15.60183924  4491
STARLINK-36466          
1 67358U 26003AA  26030.25002315 -.02050285  00000+0 -28024-1 0  9999
2 67358  43.0001  86.3397 0001013 266.0132 318.9893 15.60183089  4499
STARLINK-36499          
1 67359U 26003AB  26030.25002315 -.02029865  00000+0 -27727-1 0  9999
2 67359  43.0002  86.3348 0000735 274.0777 312.8531 15.60165275  4490
STARLINK-36469          
1 67360U 26003AC  26030.25002315 -.02051222  00000+0 -28037-1 0  9998
2 67360  43.0001  86.3297 0000925 269.4949 319.3406 15.60185235  4495
STARLINK-35306          
1 67361U 26003AD  26030.25002315 -.02046602  00000+0 -27967-1 0  9996
2 67361  43.0005  86.3242 0001086 265.9085 324.8437 15.60181919  4435
STARLINK-36428          
1 67362U 26003AE  26030.25002315 -.02042065  00000+0 -27903-1 0  9996
2 67362  43.0004  86.3189 0000925 269.5126 323.1630 15.60176648  4498
TWILIGHT A              
1 67363U 26004A   26030.25434838  .00006813  00000+0  76659-3 0  9998
2 67363  97.7987  31.0843 0007673 227.6117 132.4450 14.86970751  2775
