CCSDS_OMM_VERS = 2.0
CREATION_DATE  = 
ORIGINATOR     = 

OBJECT_NAME    = STARLINK-36479
OBJECT_ID      = 2026-003U
CENTER_NAME    = EARTH
REF_FRAME      = TEME
TIME_SYSTEM    = UTC
MEAN_ELEMENT_THEORY = SGP/SGP4

EPOCH          = 2026-01-30T06:00:02.000160
MEAN_MOTION    = 15.60185796
ECCENTRICITY   = .00009041
INCLINATION    = 43.0003
RA_OF_ASC_NODE = 86.3692
ARG_OF_PERICENTER = 273.2683
MEAN_ANOMALY   = 300.2289

EPHEMERIS_TYPE = 0
CLASSIFICATION_TYPE = U
NORAD_CAT_ID   = 67352
ELEMENT_SET_NO = 999
REV_AT_EPOCH   = 449
BSTAR          = -.28019877E-1
MEAN_MOTION_DOT = -.2050125E-1
MEAN_MOTION_DDOT = 0

CCSDS_OMM_VERS = 2.0
CREATION_DATE  = 
ORIGINATOR     = 

OBJECT_NAME    = STARLINK-36474
OBJECT_ID      = 2026-003V
CENTER_NAME    = EARTH
REF_FRAME      = TEME
TIME_SYSTEM    = UTC
MEAN_ELEMENT_THEORY = SGP/SGP4

EPOCH          = 2026-01-30T06:00:02.000160
MEAN_MOTION    = 15.60183383
ECCENTRICITY   = .00009019
INCLINATION    = 43.0003
RA_OF_ASC_NODE = 86.3645
ARG_OF_PERICENTER = 270.4034
MEAN_ANOMALY   = 305.0178

EPHEMERIS_TYPE = 0
CLASSIFICATION_TYPE = U
NORAD_CAT_ID   = 67353
ELEMENT_SET_NO = 999
REV_AT_EPOCH   = 449
BSTAR          = -.28066884E-1
MEAN_MOTION_DOT = -.2092729E-1
MEAN_MOTION_DDOT = 0

CCSDS_OMM_VERS = 2.0
CREATION_DATE  = 
ORIGINATOR     = 

OBJECT_NAME    = STARLINK-36448
OBJECT_ID      = 2026-003W
CENTER_NAME    = EARTH
REF_FRAME      = TEME
TIME_SYSTEM    = UTC
MEAN_ELEMENT_THEORY = SGP/SGP4

EPOCH          = 2026-01-30T06:00:02.000160
MEAN_MOTION    = 15.60187007
ECCENTRICITY   = .00009719
INCLINATION    = 43.0001
RA_OF_ASC_NODE = 86.3498
ARG_OF_PERICENTER = 267.7116
MEAN_ANOMALY   = 313.4554

EPHEMERIS_TYPE = 0
CLASSIFICATION_TYPE = U
NORAD_CAT_ID   = 67354
ELEMENT_SET_NO = 999
REV_AT_EPOCH   = 449
BSTAR          = -.28068203E-1
MEAN_MOTION_DOT = -.2093124E-1
MEAN_MOTION_DDOT = 0

CCSDS_OMM_VERS = 2.0
CREATION_DATE  = 
ORIGINATOR     = 

OBJECT_NAME    = STARLINK-36477
OBJECT_ID      = 2026-003X
CENTER_NAME    = EARTH
REF_FRAME      = TEME
TIME_SYSTEM    = UTC
MEAN_ELEMENT_THEORY = SGP/SGP4

EPOCH          = 2026-01-30T06:00:02.000160
MEAN_MOTION    = 15.60183261
ECCENTRICITY   = .00009768
INCLINATION    = 43.0001
RA_OF_ASC_NODE = 86.3600
ARG_OF_PERICENTER = 272.2126
MEAN_ANOMALY   = 305.1225

EPHEMERIS_TYPE = 0
CLASSIFICATION_TYPE = U
NORAD_CAT_ID   = 67355
ELEMENT_SET_NO = 999
REV_AT_EPOCH   = 448
BSTAR          = -.28019892E-1
MEAN_MOTION_DOT = -.2050004E-1
MEAN_MOTION_DDOT = 0

CCSDS_OMM_VERS = 2.0
CREATION_DATE  = 
ORIGINATOR     = 

OBJECT_NAME    = STARLINK-36429
OBJECT_ID      = 2026-003Y
CENTER_NAME    = EARTH
REF_FRAME      = TEME
TIME_SYSTEM    = UTC
MEAN_ELEMENT_THEORY = SGP/SGP4

EPOCH          = 2026-01-30T06:00:02.000160
MEAN_MOTION    = 15.60183060
ECCENTRICITY   = .00010216
INCLINATION    = 43.0001
RA_OF_ASC_NODE = 86.3548
ARG_OF_PERICENTER = 268.2289
MEAN_ANOMALY   = 311.0210

EPHEMERIS_TYPE = 0
CLASSIFICATION_TYPE = U
NORAD_CAT_ID   = 67356
ELEMENT_SET_NO = 999
REV_AT_EPOCH   = 448
BSTAR          = -.28004093E-1
MEAN_MOTION_DOT = -.2049015E-1
MEAN_MOTION_DDOT = 0

CCSDS_OMM_VERS = 2.0
CREATION_DATE  = 
ORIGINATOR     = 

OBJECT_NAME    = STARLINK-36456
OBJECT_ID      = 2026-003Z
CENTER_NAME    = EARTH
REF_FRAME      = TEME
TIME_SYSTEM    = UTC
MEAN_ELEMENT_THEORY = SGP/SGP4

EPOCH          = 2026-01-30T06:00:02.000160
MEAN_MOTION    = 15.60183924
ECCENTRICITY   = .00009404
INCLINATION    = 43.0000
RA_OF_ASC_NODE = 86.3445
ARG_OF_PERICENTER = 271.4323
MEAN_ANOMALY   = 311.6534

EPHEMERIS_TYPE = 0
CLASSIFICATION_TYPE = U
NORAD_CAT_ID   = 67357
ELEMENT_SET_NO = 999
REV_AT_EPOCH   = 449
BSTAR          = -.28025017E-1
MEAN_MOTION_DOT = -.205035E-1
MEAN_MOTION_DDOT = 0

CCSDS_OMM_VERS = 2.0
CREATION_DATE  = 
ORIGINATOR     = 

OBJECT_NAME    = STARLINK-36466
OBJECT_ID      = 2026-003AA
CENTER_NAME    = EARTH
REF_FRAME      = TEME
TIME_SYSTEM    = UTC
MEAN_ELEMENT_THEORY = SGP/SGP4

EPOCH          = 2026-01-30T06:00:02.000160
MEAN_MOTION    = 15.60183089
ECCENTRICITY   = .00010131
INCLINATION    = 43.0001
RA_OF_ASC_NODE = 86.3397
ARG_OF_PERICENTER = 266.0132
MEAN_ANOMALY   = 318.9893

EPHEMERIS_TYPE = 0
CLASSIFICATION_TYPE = U
NORAD_CAT_ID   = 67358
ELEMENT_SET_NO = 999
REV_AT_EPOCH   = 449
BSTAR          = -.28024076E-1
MEAN_MOTION_DOT = -.2050285E-1
MEAN_MOTION_DDOT = 0

CCSDS_OMM_VERS = 2.0
CREATION_DATE  = 
ORIGINATOR     = 

OBJECT_NAME    = STARLINK-36499
OBJECT_ID      = 2026-003AB
CENTER_NAME    = EARTH
REF_FRAME      = TEME
TIME_SYSTEM    = UTC
MEAN_ELEMENT_THEORY = SGP/SGP4

EPOCH          = 2026-01-30T06:00:02.000160
MEAN_MOTION    = 15.60165275
ECCENTRICITY   = .00007359
INCLINATION    = 43.0002
RA_OF_ASC_NODE = 86.3348
ARG_OF_PERICENTER = 274.0777
MEAN_ANOMALY   = 312.8531

EPHEMERIS_TYPE = 0
CLASSIFICATION_TYPE = U
NORAD_CAT_ID   = 67359
ELEMENT_SET_NO = 999
REV_AT_EPOCH   = 449
BSTAR          = -.27726637E-1
MEAN_MOTION_DOT = -.2029865E-1
MEAN_MOTION_DDOT = 0

CCSDS_OMM_VERS = 2.0
CREATION_DATE  = 
ORIGINATOR     = 

OBJECT_NAME    = STARLINK-36469
OBJECT_ID      = 2026-003AC
CENTER_NAME    = EARTH
REF_FRAME      = TEME
TIME_SYSTEM    = UTC
MEAN_ELEMENT_THEORY = SGP/SGP4

EPOCH          = 2026-01-30T06:00:02.000160
MEAN_MOTION    = 15.60185235
ECCENTRICITY   = .00009258
INCLINATION    = 43.0001
RA_OF_ASC_NODE = 86.3297
ARG_OF_PERICENTER = 269.4949
MEAN_ANOMALY   = 319.3406

EPHEMERIS_TYPE = 0
CLASSIFICATION_TYPE = U
NORAD_CAT_ID   = 67360
ELEMENT_SET_NO = 999
REV_AT_EPOCH   = 449
BSTAR          = -.28037437E-1
MEAN_MOTION_DOT = -.2051222E-1
MEAN_MOTION_DDOT = 0

CCSDS_OMM_VERS = 2.0
CREATION_DATE  = 
ORIGINATOR     = 

OBJECT_NAME    = STARLINK-35306
OBJECT_ID      = 2026-003AD
CENTER_NAME    = EARTH
REF_FRAME      = TEME
TIME_SYSTEM    = UTC
MEAN_ELEMENT_THEORY = SGP/SGP4

EPOCH          = 2026-01-30T06:00:02.000160
MEAN_MOTION    = 15.60181919
ECCENTRICITY   = .00010865
INCLINATION    = 43.0005
RA_OF_ASC_NODE = 86.3242
ARG_OF_PERICENTER = 265.9085
MEAN_ANOMALY   = 324.8437

EPHEMERIS_TYPE = 0
CLASSIFICATION_TYPE = U
NORAD_CAT_ID   = 67361
ELEMENT_SET_NO = 999
REV_AT_EPOCH   = 443
BSTAR          = -.27966758E-1
MEAN_MOTION_DOT = -.2046602E-1
MEAN_MOTION_DDOT = 0

CCSDS_OMM_VERS = 2.0
CREATION_DATE  = 
ORIGINATOR     = 

OBJECT_NAME    = STARLINK-36428
OBJECT_ID      = 2026-003AE
CENTER_NAME    = EARTH
REF_FRAME      = TEME
TIME_SYSTEM    = UTC
MEAN_ELEMENT_THEORY = SGP/SGP4

EPOCH          = 2026-01-30T06:00:02.000160
MEAN_MOTION    = 15.60176648
ECCENTRICITY   = .00009253
INCLINATION    = 43.0004
RA_OF_ASC_NODE = 86.3189
ARG_OF_PERICENTER = 269.5126
MEAN_ANOMALY   = 323.1630

EPHEMERIS_TYPE = 0
CLASSIFICATION_TYPE = U
NORAD_CAT_ID   = 67362
ELEMENT_SET_NO = 999
REV_AT_EPOCH   = 449
BSTAR          = -.27903236E-1
MEAN_MOTION_DOT = -.2042065E-1
MEAN_MOTION_DDOT = 0

CCSDS_OMM_VERS = 2.0
CREATION_DATE  = 
ORIGINATOR     = 

OBJECT_NAME    = TWILIGHT A
OBJECT_ID      = 2026-004A
CENTER_NAME    = EARTH
REF_FRAME      = TEME
TIME_SYSTEM    = UTC
MEAN_ELEMENT_THEORY = SGP/SGP4

EPOCH          = 2026-01-30T06:06:15.700032
MEAN_MOTION    = 14.86970751
ECCENTRICITY   = .00076738
INCLINATION    = 97.7987
RA_OF_ASC_NODE = 31.0843
ARG_OF_PERICENTER = 227.6117
MEAN_ANOMALY   = 132.4450

EPHEMERIS_TYPE = 0
CLASSIFICATION_TYPE = U
NORAD_CAT_ID   = 67363
ELEMENT_SET_NO = 999
REV_AT_EPOCH   = 277
BSTAR          = .76659264E-3
MEAN_MOTION_DOT = .6813E-4
MEAN_MOTION_DDOT = 0

